[{"OBJECT_NAME":"STARLINK-6122","OBJECT_ID":"2023-046AN","EPOCH":"2026-03-09T22:00:01.999584","MEAN_MOTION":15.10165489,"ECCENTRICITY":0.00022826,"INCLINATION":43.0008,"RA_OF_ASC_NODE":144.9277,"ARG_OF_PERICENTER":258.105,"MEAN_ANOMALY":108.3122,"EPHEMERIS_TYPE":0,"CLASSIFICATION_TYPE":"U","NORAD_CAT_ID":56128,"ELEMENT_SET_NO":999,"REV_AT_EPOCH":577,"BSTAR":0.0020359445,"MEAN_MOTION_DOT":0.00033751,"MEAN_MOTION_DDOT":0},{"OBJECT_NAME":"FENGYUN 1C DEB","OBJECT_ID":"1999-025EB","EPOCH":"2026-03-09T21:27:48.971520","MEAN_MOTION":14.9364801,"ECCENTRICITY":0.00856057,"INCLINATION":99.085,"RA_OF_ASC_NODE":69.4314,"ARG_OF_PERICENTER":339.4426,"MEAN_ANOMALY":20.3352,"EPHEMERIS_TYPE":0,"CLASSIFICATION_TYPE":"U","NORAD_CAT_ID":29833,"ELEMENT_SET_NO":999,"REV_AT_EPOCH":1871,"BSTAR":0.0015409165,"MEAN_MOTION_DOT":0.00017454,"MEAN_MOTION_DDOT":0}]
